STARLINK-30945          
1 58874U 24019X   24036.25001157 -.01230257  00000+0 -51279-2 0  9991
2 58874  43.0051 237.8731 0002222 268.9665 134.3123 15.87167461  2351
STARLINK-31212          
1 58875U 24019Y   24036.25001157 -.01396188  00000+0 -71509-2 0  9996
2 58875  43.0055 237.8926 0002071 271.3987 124.1999 15.82857798  2193
STARLINK-31306          
1 58876U 24020A   24035.91667824 -.01004002  00000+0 -46809-2 0  9996
2 58876  53.1655 273.3405 0000348  84.2583 102.4478 15.85049695  2268
STARLINK-31326          
1 58877U 24020B   24035.91667824 -.01012239  00000+0 -47157-2 0  9995
2 58877  53.1655 273.3378 0000805  26.4689 161.5632 15.85081376  2261
STARLINK-31300          
1 58878U 24020C   24035.91667824 -.01024496  00000+0 -47709-2 0  9997
2 58878  53.1647 273.3387 0000616  91.7176  97.8072 15.85121631  2267
STARLINK-31296          
1 58879U 24020D   24035.91667824 -.01042217  00000+0 -48523-2 0  9994
2 58879  53.1646 273.3351 0000808  56.5785 134.7269 15.85168350  2264
STARLINK-31328          
1 58880U 24020E   24036.25001157 -.01059409  00000+0 -51172-2 0  9990
2 58880  53.1659 271.6481 0000166  80.1277 215.3719 15.84460175  2301
STARLINK-31260          
1 58881U 24020F   24035.91667824 -.01058249  00000+0 -49211-2 0  9994
2 58881  53.1645 273.3293 0000578  69.9843 124.1131 15.85234823  2268
STARLINK-31323          
1 58882U 24020G   24035.91667824 -.01077793  00000+0 -50124-2 0  9995
2 58882  53.1655 273.3215 0000756  31.2130 164.5800 15.85280085  2108
STARLINK-31209          
1 58883U 24020H   24035.91667824 -.01083813  00000+0 -50355-2 0  9992
2 58883  53.1645 273.3222 0000818  64.9304 132.5000 15.85314376  2154
STARLINK-31315          
1 58884U 24020J   24036.25001157 -.00906903  25591-3 -26959-2 0  9994
2 58884  53.1642 271.4876 0000892 179.5825 194.9792 15.91771497  2146
STARLINK-31318          
1 58885U 24020K   24035.91667824 -.01099285  00000+0 -51014-2 0  9997
2 58885  53.1654 273.3120 0000691  16.1493 184.2263 15.85378523  2104
STARLINK-31320          
1 58886U 24020L   24035.91667824 -.01121923  00000+0 -52089-2 0  9996
2 58886  53.1655 273.3084 0000575  27.1856 175.0336 15.85427231  2268
STARLINK-31321          
1 58887U 24020M   24035.91667824 -.01166511  00000+0 -53127-2 0  9993
2 58887  53.1653 273.3020 0000883  28.4575 176.7403 15.85494118  2105
