[
  {
    "OBJECT_NAME": "STARLINK-30945",
    "OBJECT_ID": "2024-019X",
    "EPOCH": "2024-02-05T06:00:00.999648",
    "MEAN_MOTION": 15.87167461,
    "ECCENTRICITY": 0.0002222,
    "INCLINATION": 43.0051,
    "RA_OF_ASC_NODE": 237.8731,
    "ARG_OF_PERICENTER": 268.9665,
    "MEAN_ANOMALY": 134.3123,
    "EPHEMERIS_TYPE": 0,
    "CLASSIFICATION_TYPE": "U",
    "NORAD_CAT_ID": 58874,
    "ELEMENT_SET_NO": 999,
    "REV_AT_EPOCH": 235,
    "BSTAR": -0.0051279,
    "MEAN_MOTION_DOT": -0.01230257,
    "MEAN_MOTION_DDOT": 0
  },
  {
    "OBJECT_NAME": "STARLINK-31212",
    "OBJECT_ID": "2024-019Y",
    "EPOCH": "2024-02-05T06:00:00.999648",
    "MEAN_MOTION": 15.82857798,
    "ECCENTRICITY": 0.0002071,
    "INCLINATION": 43.0055,
    "RA_OF_ASC_NODE": 237.8926,
    "ARG_OF_PERICENTER": 271.3987,
    "MEAN_ANOMALY": 124.1999,
    "EPHEMERIS_TYPE": 0,
    "CLASSIFICATION_TYPE": "U",
    "NORAD_CAT_ID": 58875,
    "ELEMENT_SET_NO": 999,
    "REV_AT_EPOCH": 219,
    "BSTAR": -0.0071509,
    "MEAN_MOTION_DOT": -0.01396188,
    "MEAN_MOTION_DDOT": 0
  },
  {
    "OBJECT_NAME": "STARLINK-31306",
    "OBJECT_ID": "2024-020A",
    "EPOCH": "2024-02-04T22:00:00.999936",
    "MEAN_MOTION": 15.85049695,
    "ECCENTRICITY": 3.48e-05,
    "INCLINATION": 53.1655,
    "RA_OF_ASC_NODE": 273.3405,
    "ARG_OF_PERICENTER": 84.2583,
    "MEAN_ANOMALY": 102.4478,
    "EPHEMERIS_TYPE": 0,
    "CLASSIFICATION_TYPE": "U",
    "NORAD_CAT_ID": 58876,
    "ELEMENT_SET_NO": 999,
    "REV_AT_EPOCH": 226,
    "BSTAR": -0.0046809,
    "MEAN_MOTION_DOT": -0.01004002,
    "MEAN_MOTION_DDOT": 0
  },
  {
    "OBJECT_NAME": "STARLINK-31326",
    "OBJECT_ID": "2024-020B",
    "EPOCH": "2024-02-04T22:00:00.999936",
    "MEAN_MOTION": 15.85081376,
    "ECCENTRICITY": 8.05e-05,
    "INCLINATION": 53.1655,
    "RA_OF_ASC_NODE": 273.3378,
    "ARG_OF_PERICENTER": 26.4689,
    "MEAN_ANOMALY": 161.5632,
    "EPHEMERIS_TYPE": 0,
    "CLASSIFICATION_TYPE": "U",
    "NORAD_CAT_ID": 58877,
    "ELEMENT_SET_NO": 999,
    "REV_AT_EPOCH": 226,
    "BSTAR": -0.0047157,
    "MEAN_MOTION_DOT": -0.01012239,
    "MEAN_MOTION_DDOT": 0
  },
  {
    "OBJECT_NAME": "STARLINK-31300",
    "OBJECT_ID": "2024-020C",
    "EPOCH": "2024-02-04T22:00:00.999936",
    "MEAN_MOTION": 15.85121631,
    "ECCENTRICITY": 6.16e-05,
    "INCLINATION": 53.1647,
    "RA_OF_ASC_NODE": 273.3387,
    "ARG_OF_PERICENTER": 91.7176,
    "MEAN_ANOMALY": 97.8072,
    "EPHEMERIS_TYPE": 0,
    "CLASSIFICATION_TYPE": "U",
    "NORAD_CAT_ID": 58878,
    "ELEMENT_SET_NO": 999,
    "REV_AT_EPOCH": 226,
    "BSTAR": -0.0047709,
    "MEAN_MOTION_DOT": -0.01024496,
    "MEAN_MOTION_DDOT": 0
  },
  {
    "OBJECT_NAME": "STARLINK-31296",
    "OBJECT_ID": "2024-020D",
    "EPOCH": "2024-02-04T22:00:00.999936",
    "MEAN_MOTION": 15.8516835,
    "ECCENTRICITY": 8.08e-05,
    "INCLINATION": 53.1646,
    "RA_OF_ASC_NODE": 273.3351,
    "ARG_OF_PERICENTER": 56.5785,
    "MEAN_ANOMALY": 134.7269,
    "EPHEMERIS_TYPE": 0,
    "CLASSIFICATION_TYPE": "U",
    "NORAD_CAT_ID": 58879,
    "ELEMENT_SET_NO": 999,
    "REV_AT_EPOCH": 226,
    "BSTAR": -0.0048523,
    "MEAN_MOTION_DOT": -0.01042217,
    "MEAN_MOTION_DDOT": 0
  },
  {
    "OBJECT_NAME": "STARLINK-31328",
    "OBJECT_ID": "2024-020E",
    "EPOCH": "2024-02-05T06:00:00.999648",
    "MEAN_MOTION": 15.84460175,
    "ECCENTRICITY": 1.66e-05,
    "INCLINATION": 53.1659,
    "RA_OF_ASC_NODE": 271.6481,
    "ARG_OF_PERICENTER": 80.1277,
    "MEAN_ANOMALY": 215.3719,
    "EPHEMERIS_TYPE": 0,
    "CLASSIFICATION_TYPE": "U",
    "NORAD_CAT_ID": 58880,
    "ELEMENT_SET_NO": 999,
    "REV_AT_EPOCH": 230,
    "BSTAR": -0.0051172,
    "MEAN_MOTION_DOT": -0.01059409,
    "MEAN_MOTION_DDOT": 0
  },
  {
    "OBJECT_NAME": "STARLINK-31260",
    "OBJECT_ID": "2024-020F",
    "EPOCH": "2024-02-04T22:00:00.999936",
    "MEAN_MOTION": 15.85234823,
    "ECCENTRICITY": 5.78e-05,
    "INCLINATION": 53.1645,
    "RA_OF_ASC_NODE": 273.3293,
    "ARG_OF_PERICENTER": 69.9843,
    "MEAN_ANOMALY": 124.1131,
    "EPHEMERIS_TYPE": 0,
    "CLASSIFICATION_TYPE": "U",
    "NORAD_CAT_ID": 58881,
    "ELEMENT_SET_NO": 999,
    "REV_AT_EPOCH": 226,
    "BSTAR": -0.0049211,
    "MEAN_MOTION_DOT": -0.01058249,
    "MEAN_MOTION_DDOT": 0
  },
  {
    "OBJECT_NAME": "STARLINK-31323",
    "OBJECT_ID": "2024-020G",
    "EPOCH": "2024-02-04T22:00:00.999936",
    "MEAN_MOTION": 15.85280085,
    "ECCENTRICITY": 7.56e-05,
    "INCLINATION": 53.1655,
    "RA_OF_ASC_NODE": 273.3215,
    "ARG_OF_PERICENTER": 31.213,
    "MEAN_ANOMALY": 164.58,
    "EPHEMERIS_TYPE": 0,
    "CLASSIFICATION_TYPE": "U",
    "NORAD_CAT_ID": 58882,
    "ELEMENT_SET_NO": 999,
    "REV_AT_EPOCH": 210,
    "BSTAR": -0.0050124,
    "MEAN_MOTION_DOT": -0.01077793,
    "MEAN_MOTION_DDOT": 0
  },
  {
    "OBJECT_NAME": "STARLINK-31209",
    "OBJECT_ID": "2024-020H",
    "EPOCH": "2024-02-04T22:00:00.999936",
    "MEAN_MOTION": 15.85314376,
    "ECCENTRICITY": 8.18e-05,
    "INCLINATION": 53.1645,
    "RA_OF_ASC_NODE": 273.3222,
    "ARG_OF_PERICENTER": 64.9304,
    "MEAN_ANOMALY": 132.5,
    "EPHEMERIS_TYPE": 0,
    "CLASSIFICATION_TYPE": "U",
    "NORAD_CAT_ID": 58883,
    "ELEMENT_SET_NO": 999,
    "REV_AT_EPOCH": 215,
    "BSTAR": -0.0050355,
    "MEAN_MOTION_DOT": -0.01083813,
    "MEAN_MOTION_DDOT": 0
  },
  {
    "OBJECT_NAME": "STARLINK-31315",
    "OBJECT_ID": "2024-020J",
    "EPOCH": "2024-02-05T06:00:00.999648",
    "MEAN_MOTION": 15.91771497,
    "ECCENTRICITY": 8.92e-05,
    "INCLINATION": 53.1642,
    "RA_OF_ASC_NODE": 271.4876,
    "ARG_OF_PERICENTER": 179.5825,
    "MEAN_ANOMALY": 194.9792,
    "EPHEMERIS_TYPE": 0,
    "CLASSIFICATION_TYPE": "U",
    "NORAD_CAT_ID": 58884,
    "ELEMENT_SET_NO": 999,
    "REV_AT_EPOCH": 214,
    "BSTAR": -0.0026959,
    "MEAN_MOTION_DOT": -0.00906903,
    "MEAN_MOTION_DDOT": 0.00025591
  },
  {
    "OBJECT_NAME": "STARLINK-31318",
    "OBJECT_ID": "2024-020K",
    "EPOCH": "2024-02-04T22:00:00.999936",
    "MEAN_MOTION": 15.85378523,
    "ECCENTRICITY": 6.91e-05,
    "INCLINATION": 53.1654,
    "RA_OF_ASC_NODE": 273.312,
    "ARG_OF_PERICENTER": 16.1493,
    "MEAN_ANOMALY": 184.2263,
    "EPHEMERIS_TYPE": 0,
    "CLASSIFICATION_TYPE": "U",
    "NORAD_CAT_ID": 58885,
    "ELEMENT_SET_NO": 999,
    "REV_AT_EPOCH": 210,
    "BSTAR": -0.0051014,
    "MEAN_MOTION_DOT": -0.01099285,
    "MEAN_MOTION_DDOT": 0
  },
  {
    "OBJECT_NAME": "STARLINK-31320",
    "OBJECT_ID": "2024-020L",
    "EPOCH": "2024-02-04T22:00:00.999936",
    "MEAN_MOTION": 15.85427231,
    "ECCENTRICITY": 5.75e-05,
    "INCLINATION": 53.1655,
    "RA_OF_ASC_NODE": 273.3084,
    "ARG_OF_PERICENTER": 27.1856,
    "MEAN_ANOMALY": 175.0336,
    "EPHEMERIS_TYPE": 0,
    "CLASSIFICATION_TYPE": "U",
    "NORAD_CAT_ID": 58886,
    "ELEMENT_SET_NO": 999,
    "REV_AT_EPOCH": 226,
    "BSTAR": -0.0052089,
    "MEAN_MOTION_DOT": -0.01121923,
    "MEAN_MOTION_DDOT": 0
  },
  {
    "OBJECT_NAME": "STARLINK-31321",
    "OBJECT_ID": "2024-020M",
    "EPOCH": "2024-02-04T22:00:00.999936",
    "MEAN_MOTION": 15.85494118,
    "ECCENTRICITY": 8.83e-05,
    "INCLINATION": 53.1653,
    "RA_OF_ASC_NODE": 273.302,
    "ARG_OF_PERICENTER": 28.4575,
    "MEAN_ANOMALY": 176.7403,
    "EPHEMERIS_TYPE": 0,
    "CLASSIFICATION_TYPE": "U",
    "NORAD_CAT_ID": 58887,
    "ELEMENT_SET_NO": 999,
    "REV_AT_EPOCH": 210,
    "BSTAR": -0.0053127,
    "MEAN_MOTION_DOT": -0.01166511,
    "MEAN_MOTION_DDOT": 0
  }
]